CTC1_L_00591001-01
1 88799U 24328X   26037.47810185  .00000000  00000+0  00000-0 0  9991
2 88799  70.0000   0.0000 0000000   0.0000   0.0000  6.30405331    16
CTC1_L_00591001-02
1 88800U 25013WH  26037.47810185  .00000000  00000+0  00000-0 0  9996
2 88800  70.0000   0.0000 0000000   0.0000  36.0000  6.30405331    18
CTC1_L_00591001-03
1 88801U 22310EV  26037.47810185  .00000000  00000+0  00000-0 0  9994
2 88801  70.0000   0.0000 0000000   0.0000  72.0000  6.30405331    19
CTC1_L_00591001-04
1 88802U 22845OL  26037.47810185  .00000000  00000+0  00000-0 0  9998
2 88802  70.0000   0.0000 0000000   0.0000 108.0000  6.30405331    10
CTC1_L_00591001-05
1 88803U 25132AV  26037.47810185  .00000000  00000+0  00000-0 0  9991
2 88803  70.0000   0.0000 0000000   0.0000 144.0000  6.30405331    11
CTC1_L_00591001-06
1 88804U 25678HE  26037.47810185  .00000000  00000+0  00000-0 0  9997
2 88804  70.0000   0.0000 0000000   0.0000 180.0000  6.30405331    12
CTC1_L_00591001-07
1 88805U 25263ZK  26037.47810185  .00000000  00000+0  00000-0 0  9998
2 88805  70.0000   0.0000 0000000   0.0000 216.0000  6.30405331    13
CTC1_L_00591001-08
1 88806U 22788PF  26037.47810185  .00000000  00000+0  00000-0 0  9998
2 88806  70.0000   0.0000 0000000   0.0000 252.0000  6.30405331    14
CTC1_L_00591001-09
1 88807U 22764VH  26037.47810185  .00000000  00000+0  00000-0 0  9993
2 88807  70.0000   0.0000 0000000   0.0000 288.0000  6.30405331    14
CTC1_L_00591001-10
1 88808U 25794SO  26037.47810185  .00000000  00000+0  00000-0 0  9990
2 88808  70.0000   0.0000 0000000   0.0000 324.0000  6.30405331    16
CTC1_L_00591002-01
1 88809U 25877QO  26037.47810185  .00000000  00000+0  00000-0 0  9993
2 88809  70.0000  30.0000 0000000   0.0000  12.0000  6.30405331    14
CTC1_L_00591002-02
1 88810U 23698DK  26037.47810185  .00000000  00000+0  00000-0 0  9994
2 88810  70.0000  30.0000 0000000   0.0000  48.0000  6.30405331    15
CTC1_L_00591002-03
1 88811U 22133DQ  26037.47810185  .00000000  00000+0  00000-0 0  9998
2 88811  70.0000  30.0000 0000000   0.0000  84.0000  6.30405331    16
CTC1_L_00591002-04
1 88812U 24526IE  26037.47810185  .00000000  00000+0  00000-0 0  9997
2 88812  70.0000  30.0000 0000000   0.0000 120.0000  6.30405331    18
CTC1_L_00591002-05
1 88813U 22052VK  26037.47810185  .00000000  00000+0  00000-0 0  9990
2 88813  70.0000  30.0000 0000000   0.0000 156.0000  6.30405331    18
CTC1_L_00591002-06
1 88814U 26790SQ  26037.47810185  .00000000  00000+0  00000-0 0  9994
2 88814  70.0000  30.0000 0000000   0.0000 192.0000  6.30405331    19
CTC1_L_00591002-07
1 88815U 25602IC  26037.47810185  .00000000  00000+0  00000-0 0  9996
2 88815  70.0000  30.0000 0000000   0.0000 228.0000  6.30405331    10
CTC1_L_00591002-08
1 88816U 22876ZP  26037.47810185  .00000000  00000+0  00000-0 0  9997
2 88816  70.0000  30.0000 0000000   0.0000 264.0000  6.30405331    11
CTC1_L_00591002-09
1 88817U 22715WJ  26037.47810185  .00000000  00000+0  00000-0 0  9990
2 88817  70.0000  30.0000 0000000   0.0000 300.0000  6.30405331    13
CTC1_L_00591002-10
1 88818U 22159YV  26037.47810185  .00000000  00000+0  00000-0 0  9993
2 88818  70.0000  30.0000 0000000   0.0000 336.0000  6.30405331    13
CTC1_L_00591003-01
1 88819U 24805KI  26037.47810185  .00000000  00000+0  00000-0 0  9994
2 88819  70.0000  60.0000 0000000   0.0000  24.0000  6.30405331    11
CTC1_L_00591003-02
1 88820U 24819OV  26037.47810185  .00000000  00000+0  00000-0 0  9991
2 88820  70.0000  60.0000 0000000   0.0000  60.0000  6.30405331    13
CTC1_L_00591003-03
1 88821U 24182YP  26037.47810185  .00000000  00000+0  00000-0 0  9995
2 88821  70.0000  60.0000 0000000   0.0000  96.0000  6.30405331    13
CTC1_L_00591003-04
1 88822U 23066FL  26037.47810185  .00000000  00000+0  00000-0 0  9996
2 88822  70.0000  60.0000 0000000   0.0000 132.0000  6.30405331    15
CTC1_L_00591003-05
1 88823U 24723BC  26037.47810185  .00000000  00000+0  00000-0 0  9998
2 88823  70.0000  60.0000 0000000   0.0000 168.0000  6.30405331    15
CTC1_L_00591003-06
1 88824U 23417FU  26037.47810185  .00000000  00000+0  00000-0 0  9998
2 88824  70.0000  60.0000 0000000   0.0000 204.0000  6.30405331    17
CTC1_L_00591003-07
1 88825U 24489UH  26037.47810185  .00000000  00000+0  00000-0 0  9999
2 88825  70.0000  60.0000 0000000   0.0000 240.0000  6.30405331    18
CTC1_L_00591003-08
1 88826U 25048HF  26037.47810185  .00000000  00000+0  00000-0 0  9992
2 88826  70.0000  60.0000 0000000   0.0000 276.0000  6.30405331    18
CTC1_L_00591003-09
1 88827U 25727TN  26037.47810185  .00000000  00000+0  00000-0 0  9997
2 88827  70.0000  60.0000 0000000   0.0000 312.0000  6.30405331    10
CTC1_L_00591003-10
1 88828U 26079RA  26037.47810185  .00000000  00000+0  00000-0 0  9999
2 88828  70.0000  60.0000 0000000   0.0000 348.0000  6.30405331    10
CTC1_L_00591004-01
1 88829U 25164CG  26037.47810185  .00000000  00000+0  00000-0 0  9994
2 88829  70.0000  90.0000 0000000   0.0000  36.0000  6.30405331    18
CTC1_L_00591004-02
1 88830U 26926IZ  26037.47810185  .00000000  00000+0  00000-0 0  9993
2 88830  70.0000  90.0000 0000000   0.0000  72.0000  6.30405331    10
CTC1_L_00591004-03
1 88831U 24825KH  26037.47810185  .00000000  00000+0  00000-0 0  9990
2 88831  70.0000  90.0000 0000000   0.0000 108.0000  6.30405331    11
CTC1_L_00591004-04
1 88832U 24902QN  26037.47810185  .00000000  00000+0  00000-0 0  9997
2 88832  70.0000  90.0000 0000000   0.0000 144.0000  6.30405331    12
CTC1_L_00591004-05
1 88833U 24763OP  26037.47810185  .00000000  00000+0  00000-0 0  9993
2 88833  70.0000  90.0000 0000000   0.0000 180.0000  6.30405331    13
CTC1_L_00591004-06
1 88834U 23791PI  26037.47810185  .00000000  00000+0  00000-0 0  9994
2 88834  70.0000  90.0000 0000000   0.0000 216.0000  6.30405331    14
CTC1_L_00591004-07
1 88835U 26756SI  26037.47810185  .00000000  00000+0  00000-0 0  9999
2 88835  70.0000  90.0000 0000000   0.0000 252.0000  6.30405331    15
CTC1_L_00591004-08
1 88836U 22369XY  26037.47810185  .00000000  00000+0  00000-0 0  9996
2 88836  70.0000  90.0000 0000000   0.0000 288.0000  6.30405331    15
CTC1_L_00591004-09
1 88837U 22722TA  26037.47810185  .00000000  00000+0  00000-0 0  9990
2 88837  70.0000  90.0000 0000000   0.0000 324.0000  6.30405331    17
CTC1_L_00591004-10
1 88838U 23358BG  26037.47810185  .00000000  00000+0  00000-0 0  9997
2 88838  70.0000  90.0000 0000000   0.0000   0.0000  6.30405331    19
CTC1_L_00591005-01
1 88839U 25981AD  26037.47810185  .00000000  00000+0  00000-0 0  9992
2 88839  70.0000 120.0000 0000000   0.0000  48.0000  6.30405331    16
CTC1_L_00591005-02
1 88840U 24218H   26037.47810185  .00000000  00000+0  00000-0 0  9996
2 88840  70.0000 120.0000 0000000   0.0000  84.0000  6.30405331    18
CTC1_L_00591005-03
1 88841U 23902PR  26037.47810185  .00000000  00000+0  00000-0 0  9996
2 88841  70.0000 120.0000 0000000   0.0000 120.0000  6.30405331    10
CTC1_L_00591005-04
1 88842U 23113BA  26037.47810185  .00000000  00000+0  00000-0 0  9991
2 88842  70.0000 120.0000 0000000   0.0000 156.0000  6.30405331    10
CTC1_L_00591005-05
1 88843U 26264MX  26037.47810185  .00000000  00000+0  00000-0 0  9992
2 88843  70.0000 120.0000 0000000   0.0000 192.0000  6.30405331    11
CTC1_L_00591005-06
1 88844U 24508AD  26037.47810185  .00000000  00000+0  00000-0 0  9992
2 88844  70.0000 120.0000 0000000   0.0000 228.0000  6.30405331    12
CTC1_L_00591005-07
1 88845U 26466AR  26037.47810185  .00000000  00000+0  00000-0 0  9998
2 88845  70.0000 120.0000 0000000   0.0000 264.0000  6.30405331    13
CTC1_L_00591005-08
1 88846U 23050QX  26037.47810185  .00000000  00000+0  00000-0 0  9995
2 88846  70.0000 120.0000 0000000   0.0000 300.0000  6.30405331    15
CTC1_L_00591005-09
1 88847U 26738FM  26037.47810185  .00000000  00000+0  00000-0 0  9992
2 88847  70.0000 120.0000 0000000   0.0000 336.0000  6.30405331    15
CTC1_L_00591005-10
1 88848U 23059NZ  26037.47810185  .00000000  00000+0  00000-0 0  9996
2 88848  70.0000 120.0000 0000000   0.0000  12.0000  6.30405331    17
CTC1_L_00591006-01
1 88849U 22145YB  26037.47810185  .00000000  00000+0  00000-0 0  9992
2 88849  70.0000 150.0000 0000000   0.0000  60.0000  6.30405331    14
CTC1_L_00591006-02
1 88850U 24329MD  26037.47810185  .00000000  00000+0  00000-0 0  9990
2 88850  70.0000 150.0000 0000000   0.0000  96.0000  6.30405331    15
CTC1_L_00591006-03
1 88851U 26245O   26037.47810185  .00000000  00000+0  00000-0 0  9990
2 88851  70.0000 150.0000 0000000   0.0000 132.0000  6.30405331    17
CTC1_L_00591006-04
1 88852U 24416HZ  26037.47810185  .00000000  00000+0  00000-0 0  9999
2 88852  70.0000 150.0000 0000000   0.0000 168.0000  6.30405331    17
CTC1_L_00591006-05
1 88853U 24418QP  26037.47810185  .00000000  00000+0  00000-0 0  9992
2 88853  70.0000 150.0000 0000000   0.0000 204.0000  6.30405331    19
CTC1_L_00591006-06
1 88854U 24142EY  26037.47810185  .00000000  00000+0  00000-0 0  9997
2 88854  70.0000 150.0000 0000000   0.0000 240.0000  6.30405331    10
CTC1_L_00591006-07
1 88855U 22182DQ  26037.47810185  .00000000  00000+0  00000-0 0  9990
2 88855  70.0000 150.0000 0000000   0.0000 276.0000  6.30405331    10
CTC1_L_00591006-08
1 88856U 25628XC  26037.47810185  .00000000  00000+0  00000-0 0  9999
2 88856  70.0000 150.0000 0000000   0.0000 312.0000  6.30405331    12
CTC1_L_00591006-09
1 88857U 22451DJ  26037.47810185  .00000000  00000+0  00000-0 0  9991
2 88857  70.0000 150.0000 0000000   0.0000 348.0000  6.30405331    12
CTC1_L_00591006-10
1 88858U 25596RC  26037.47810185  .00000000  00000+0  00000-0 0  9995
2 88858  70.0000 150.0000 0000000   0.0000  24.0000  6.30405331    14
CTC1_L_00591007-01
1 88859U 24480WE  26037.47810185  .00000000  00000+0  00000-0 0  9997
2 88859  70.0000 180.0000 0000000   0.0000  72.0000  6.30405331    11
CTC1_L_00591007-02
1 88860U 25057LI  26037.47810185  .00000000  00000+0  00000-0 0  9990
2 88860  70.0000 180.0000 0000000   0.0000 108.0000  6.30405331    13
